LEMUR-2-CELIJO-SB-PK    
1 66781U 25276DW  26157.42929830  .00009014  00000+0  73136-3 0  9994
2 66781  97.5276 228.5585 0008831 158.5528 201.6068 14.99845445 21015
LEMUR-2-FINNIAN         
1 66782U 25276DX  26157.94271707  .00007925  00000+0  63700-3 0  9990
2 66782  97.5258 229.2619 0008428 120.5386 239.6671 15.00247940 18460
LEMUR-2-STARLIGHT       
1 66783U 25276DY  26157.15568422  .00008660  00000+0  71867-3 0  9997
2 66783  97.5273 228.1699 0015234 159.8654 200.3173 14.98925272 28549
LEMUR-2-TARTIFLETTE     
1 66784U 25276DZ  26157.42138308  .00010270  00000+0  85100-3 0  9999
2 66784  97.5274 228.4322 0013896 165.1491 195.0143 14.98949627 28589
LEMUR-2-VUKASIN         
1 66785U 25276EA  26158.02460631  .00007577  00000+0  60934-3 0  9998
2 66785  97.5302 229.2874 0006247 148.0964 212.0640 15.00253929 28624
LEMUR-2-HOTSPUR-TOM     
1 66786U 25276EB  26158.01394140  .00008326  00000+0  69278-3 0  9992
2 66786  97.5245 228.9894 0015290 159.0225 201.1629 14.98832609 28607
LEMUR-2-MYRA            
1 66787U 25276EC  26157.45480852  .00008844  00000+0  71177-3 0  9992
2 66787  97.5219 228.6895 0015299 177.2463 182.8848 15.00100506 28608
LEMUR-2 FIKRETDENGIZ    
1 67363U 26004A   26158.25112233  .00004243  00000+0  46492-3 0  9998
2 67363  97.8016 156.9628 0009193 162.3559 197.7979 14.88253390 21801
TWILIGHT-1 OBJECT B     
1 67364U 26004B   26158.27154989  .00002489  00000+0  27917-3 0  9996
2 67364  97.8061 157.0022 0009293 153.2430 206.9268 14.87668705 21814
LEMUR-2-MARIO-SOUSA     
1 67365U 26004C   26157.56371250  .00005224  00000+0  56852-3 0  9990
2 67365  97.7994 156.2825 0008767 164.4177 195.7311 14.88430646 21713
LEMUR-2-SONNENBLUME     
1 67367U 26004E   26157.49356557  .00003364  00000+0  36987-3 0  9997
2 67367  97.7982 156.2017 0008345 166.5825 193.5615 14.88262544 21702
LEMUR-2-WOBLER          
1 67368U 26004F   26158.22791516  .00004496  00000+0  48994-3 0  9996
2 67368  97.8043 157.0369 0008786 153.7986 206.3677 14.88449995 21816
LEMUR-2-GRAM-E-SUE      
1 67370U 26004H   26157.54606805  .00003295  00000+0  36097-3 0  9996
2 67370  97.7974 156.2680 0007274 166.7193 193.4216 14.88424897 21711
LEMUR-2-KATIE           
1 67387U 26004AA  26157.74599953  .00005809  00000+0  60813-3 0  9997
2 67387  97.8036 156.8905 0004712 114.5413 245.6296 14.89977033 21753
LEMUR-2-HCS-BAZUS       
1 67388U 26004AB  26158.28235762  .00006219  00000+0  65065-3 0  9993
2 67388  97.8027 157.4020 0004334 108.3243 251.8447 14.89977899 21837
